[{"OBJECT_NAME":"ION SCV-017","OBJECT_ID":"2025-052W","EPOCH":"2026-03-09T17:11:44.577024","MEAN_MOTION":15.26881798,"ECCENTRICITY":0.0023746,"INCLINATION":97.4016,"RA_OF_ASC_NODE":324.7516,"ARG_OF_PERICENTER":44.9875,"MEAN_ANOMALY":315.3282,"EPHEMERIS_TYPE":0,"CLASSIFICATION_TYPE":"U","NORAD_CAT_ID":63230,"ELEMENT_SET_NO":999,"REV_AT_EPOCH":5485,"BSTAR":0.00024539061,"MEAN_MOTION_DOT":6.457e-5,"MEAN_MOTION_DDOT":0},{"OBJECT_NAME":"STARLINK-35805","OBJECT_ID":"2025-254M","EPOCH":"2026-03-09T17:26:09.598272","MEAN_MOTION":15.30193213,"ECCENTRICITY":8.236e-5,"INCLINATION":53.1582,"RA_OF_ASC_NODE":232.1143,"ARG_OF_PERICENTER":81.1817,"MEAN_ANOMALY":278.9277,"EPHEMERIS_TYPE":0,"CLASSIFICATION_TYPE":"U","NORAD_CAT_ID":66359,"ELEMENT_SET_NO":999,"REV_AT_EPOCH":2011,"BSTAR":0.00043263139,"MEAN_MOTION_DOT":0.00012473,"MEAN_MOTION_DDOT":0}]
